[{"OBJECT_NAME":"ICEYE-X7","OBJECT_ID":"2020-068L","EPOCH":"2026-03-09T22:52:28.702272","MEAN_MOTION":15.29152508,"ECCENTRICITY":0.00068409,"INCLINATION":97.7412,"RA_OF_ASC_NODE":31.2076,"ARG_OF_PERICENTER":332.3045,"MEAN_ANOMALY":27.7829,"EPHEMERIS_TYPE":0,"CLASSIFICATION_TYPE":"U","NORAD_CAT_ID":46496,"ELEMENT_SET_NO":999,"REV_AT_EPOCH":29961,"BSTAR":0.0005654802,"MEAN_MOTION_DOT":0.00015947,"MEAN_MOTION_DDOT":0},{"OBJECT_NAME":"STARLINK-34464","OBJECT_ID":"2025-139A","EPOCH":"2026-03-09T10:33:50.361408","MEAN_MOTION":15.30205407,"ECCENTRICITY":6.866e-5,"INCLINATION":53.1574,"RA_OF_ASC_NODE":128.3623,"ARG_OF_PERICENTER":92.5604,"MEAN_ANOMALY":267.5476,"EPHEMERIS_TYPE":0,"CLASSIFICATION_TYPE":"U","NORAD_CAT_ID":64664,"ELEMENT_SET_NO":999,"REV_AT_EPOCH":4024,"BSTAR":0.0007895388,"MEAN_MOTION_DOT":0.00023101,"MEAN_MOTION_DDOT":0}]
